[{"OBJECT_NAME":"WGS F1 (USA 195)","OBJECT_ID":"2007-046A","EPOCH":"2026-03-06T20:36:09.400032","MEAN_MOTION":1.00272461,"ECCENTRICITY":2.92e-5,"INCLINATION":0.0792,"RA_OF_ASC_NODE":87.2869,"ARG_OF_PERICENTER":335.5143,"MEAN_ANOMALY":8.2822,"EPHEMERIS_TYPE":0,"CLASSIFICATION_TYPE":"U","NORAD_CAT_ID":32258,"ELEMENT_SET_NO":999,"REV_AT_EPOCH":5130,"BSTAR":0,"MEAN_MOTION_DOT":-2.7e-6,"MEAN_MOTION_DDOT":0},{"OBJECT_NAME":"SKYNET 5B","OBJECT_ID":"2007-056B","EPOCH":"2026-03-07T00:18:51.712128","MEAN_MOTION":1.00272164,"ECCENTRICITY":0.0004004,"INCLINATION":4.9918,"RA_OF_ASC_NODE":74.7206,"ARG_OF_PERICENTER":271.749,"MEAN_ANOMALY":208.0209,"EPHEMERIS_TYPE":0,"CLASSIFICATION_TYPE":"U","NORAD_CAT_ID":32294,"ELEMENT_SET_NO":999,"REV_AT_EPOCH":6717,"BSTAR":0,"MEAN_MOTION_DOT":1.38e-6,"MEAN_MOTION_DDOT":0},{"OBJECT_NAME":"ASTRA 4A","OBJECT_ID":"2007-057A","EPOCH":"2026-03-07T01:45:38.679840","MEAN_MOTION":1.00271294,"ECCENTRICITY":0.0002424,"INCLINATION":0.0479,"RA_OF_ASC_NODE":297.4907,"ARG_OF_PERICENTER":53.2433,"MEAN_ANOMALY":205.2579,"EPHEMERIS_TYPE":0,"CLASSIFICATION_TYPE":"U","NORAD_CAT_ID":32299,"ELEMENT_SET_NO":999,"REV_AT_EPOCH":5062,"BSTAR":0,"MEAN_MOTION_DOT":3.0e-7,"MEAN_MOTION_DDOT":0},{"OBJECT_NAME":"HORIZONS-2","OBJECT_ID":"2007-063B","EPOCH":"2026-03-07T02:42:38.530944","MEAN_MOTION":1.00271076,"ECCENTRICITY":0.0002766,"INCLINATION":2.3387,"RA_OF_ASC_NODE":81.9182,"ARG_OF_PERICENTER":263.4343,"MEAN_ANOMALY":146.3283,"EPHEMERIS_TYPE":0,"CLASSIFICATION_TYPE":"U","NORAD_CAT_ID":32388,"ELEMENT_SET_NO":999,"REV_AT_EPOCH":6679,"BSTAR":0,"MEAN_MOTION_DOT":-2.55e-6,"MEAN_MOTION_DDOT":0},{"OBJECT_NAME":"THURAYA-3","OBJECT_ID":"2008-001A","EPOCH":"2026-03-06T23:01:38.697024","MEAN_MOTION":1.00269972,"ECCENTRICITY":0.0002434,"INCLINATION":5.8165,"RA_OF_ASC_NODE":35.6064,"ARG_OF_PERICENTER":315.425,"MEAN_ANOMALY":257.5229,"EPHEMERIS_TYPE":0,"CLASSIFICATION_TYPE":"U","NORAD_CAT_ID":32404,"ELEMENT_SET_NO":999,"REV_AT_EPOCH":6646,"BSTAR":0,"MEAN_MOTION_DOT":-3.03e-6,"MEAN_MOTION_DDOT":0},{"OBJECT_NAME":"EXPRESS-AM33","OBJECT_ID":"2008-003A","EPOCH":"2026-03-07T03:50:48.396768","MEAN_MOTION":1.00173008,"ECCENTRICITY":0.0014064,"INCLINATION":4.5401,"RA_OF_ASC_NODE":76.58,"ARG_OF_PERICENTER":179.8433,"MEAN_ANOMALY":7.4304,"EPHEMERIS_TYPE":0,"CLASSIFICATION_TYPE":"U","NORAD_CAT_ID":32478,"ELEMENT_SET_NO":999,"REV_AT_EPOCH":5271,"BSTAR":0,"MEAN_MOTION_DOT":1.48e-6,"MEAN_MOTION_DDOT":0},{"OBJECT_NAME":"THOR 5","OBJECT_ID":"2008-006A","EPOCH":"2026-03-06T22:54:38.628864","MEAN_MOTION":1.00271641,"ECCENTRICITY":0.0002688,"INCLINATION":0.0452,"RA_OF_ASC_NODE":253.4982,"ARG_OF_PERICENTER":105.8212,"MEAN_ANOMALY":148.2392,"EPHEMERIS_TYPE":0,"CLASSIFICATION_TYPE":"U","NORAD_CAT_ID":32487,"ELEMENT_SET_NO":999,"REV_AT_EPOCH":6629,"BSTAR":0,"MEAN_MOTION_DOT":-1.2e-7,"MEAN_MOTION_DDOT":0},{"OBJECT_NAME":"KIZUNA (WINDS)","OBJECT_ID":"2008-007A","EPOCH":"2026-03-06T19:04:27.556032","MEAN_MOTION":1.0028486,"ECCENTRICITY":0.0001161,"INCLINATION":8.2841,"RA_OF_ASC_NODE":63.3078,"ARG_OF_PERICENTER":204.7434,"MEAN_ANOMALY":178.7489,"EPHEMERIS_TYPE":0,"CLASSIFICATION_TYPE":"U","NORAD_CAT_ID":32500,"ELEMENT_SET_NO":999,"REV_AT_EPOCH":6587,"BSTAR":0,"MEAN_MOTION_DOT":-3.7e-7,"MEAN_MOTION_DDOT":0},{"OBJECT_NAME":"DIRECTV 11","OBJECT_ID":"2008-013A","EPOCH":"2026-03-06T13:29:14.697888","MEAN_MOTION":1.00272331,"ECCENTRICITY":2.809e-5,"INCLINATION":0.0177,"RA_OF_ASC_NODE":334.4791,"ARG_OF_PERICENTER":9.1117,"MEAN_ANOMALY":283.8006,"EPHEMERIS_TYPE":0,"CLASSIFICATION_TYPE":"U","NORAD_CAT_ID":32729,"ELEMENT_SET_NO":999,"REV_AT_EPOCH":4456,"BSTAR":0,"MEAN_MOTION_DOT":-1.3e-6,"MEAN_MOTION_DDOT":0},{"OBJECT_NAME":"ICO G1","OBJECT_ID":"2008-016A","EPOCH":"2026-03-06T23:47:04.267104","MEAN_MOTION":1.00272649,"ECCENTRICITY":0.0002654,"INCLINATION":5.5116,"RA_OF_ASC_NODE":36.3693,"ARG_OF_PERICENTER":293.0133,"MEAN_ANOMALY":99.2319,"EPHEMERIS_TYPE":0,"CLASSIFICATION_TYPE":"U","NORAD_CAT_ID":32763,"ELEMENT_SET_NO":999,"REV_AT_EPOCH":6552,"BSTAR":0,"MEAN_MOTION_DOT":-1.73e-6,"MEAN_MOTION_DDOT":0},{"OBJECT_NAME":"VINASAT-1","OBJECT_ID":"2008-018A","EPOCH":"2026-03-06T23:26:38.829120","MEAN_MOTION":1.00272657,"ECCENTRICITY":0.0002348,"INCLINATION":0.0469,"RA_OF_ASC_NODE":287.36,"ARG_OF_PERICENTER":99.323,"MEAN_ANOMALY":261.5991,"EPHEMERIS_TYPE":0,"CLASSIFICATION_TYPE":"U","NORAD_CAT_ID":32767,"ELEMENT_SET_NO":999,"REV_AT_EPOCH":6556,"BSTAR":0,"MEAN_MOTION_DOT":-3.31e-6,"MEAN_MOTION_DDOT":0},{"OBJECT_NAME":"STAR ONE C2","OBJECT_ID":"2008-018B","EPOCH":"2026-03-06T11:56:16.778688","MEAN_MOTION":1.00274104,"ECCENTRICITY":0.00028132,"INCLINATION":0.978,"RA_OF_ASC_NODE":83.4315,"ARG_OF_PERICENTER":265.6045,"MEAN_ANOMALY":289.2387,"EPHEMERIS_TYPE":0,"CLASSIFICATION_TYPE":"U","NORAD_CAT_ID":32768,"ELEMENT_SET_NO":999,"REV_AT_EPOCH":6562,"BSTAR":0,"MEAN_MOTION_DOT":-2.81e-6,"MEAN_MOTION_DDOT":0},{"OBJECT_NAME":"AMOS-3","OBJECT_ID":"2008-022A","EPOCH":"2026-03-06T23:36:38.557440","MEAN_MOTION":1.00273553,"ECCENTRICITY":0.0001588,"INCLINATION":0.1914,"RA_OF_ASC_NODE":88.8494,"ARG_OF_PERICENTER":188.51,"MEAN_ANOMALY":237.3919,"EPHEMERIS_TYPE":0,"CLASSIFICATION_TYPE":"U","NORAD_CAT_ID":32794,"ELEMENT_SET_NO":999,"REV_AT_EPOCH":8131,"BSTAR":0,"MEAN_MOTION_DOT":-3.8e-7,"MEAN_MOTION_DDOT":0},{"OBJECT_NAME":"GALAXY 18 (G-18)","OBJECT_ID":"2008-024A","EPOCH":"2026-03-07T03:22:38.728128","MEAN_MOTION":1.00272041,"ECCENTRICITY":0.0003277,"INCLINATION":0.0226,"RA_OF_ASC_NODE":151.2991,"ARG_OF_PERICENTER":223.0665,"MEAN_ANOMALY":78.1667,"EPHEMERIS_TYPE":0,"CLASSIFICATION_TYPE":"U","NORAD_CAT_ID":32951,"ELEMENT_SET_NO":999,"REV_AT_EPOCH":4482,"BSTAR":0,"MEAN_MOTION_DOT":0,"MEAN_MOTION_DDOT":0},{"OBJECT_NAME":"ZHONGXING-9","OBJECT_ID":"2008-028A","EPOCH":"2026-03-07T02:22:41.846016","MEAN_MOTION":1.00271944,"ECCENTRICITY":0.0008798,"INCLINATION":0.5079,"RA_OF_ASC_NODE":87.0072,"ARG_OF_PERICENTER":242.1074,"MEAN_ANOMALY":323.7513,"EPHEMERIS_TYPE":0,"CLASSIFICATION_TYPE":"U","NORAD_CAT_ID":33051,"ELEMENT_SET_NO":999,"REV_AT_EPOCH":6501,"BSTAR":0,"MEAN_MOTION_DOT":-2.51e-6,"MEAN_MOTION_DDOT":0},{"OBJECT_NAME":"SKYNET 5C","OBJECT_ID":"2008-030A","EPOCH":"2026-03-06T22:27:38.488032","MEAN_MOTION":1.00272909,"ECCENTRICITY":0.0005008,"INCLINATION":3.5272,"RA_OF_ASC_NODE":78.2595,"ARG_OF_PERICENTER":283.0739,"MEAN_ANOMALY":122.4009,"EPHEMERIS_TYPE":0,"CLASSIFICATION_TYPE":"U","NORAD_CAT_ID":33055,"ELEMENT_SET_NO":999,"REV_AT_EPOCH":6493,"BSTAR":0,"MEAN_MOTION_DOT":-1.42e-6,"MEAN_MOTION_DDOT":0},{"OBJECT_NAME":"TURKSAT 3A","OBJECT_ID":"2008-030B","EPOCH":"2026-03-06T12:26:43.859616","MEAN_MOTION":1.00275896,"ECCENTRICITY":0.0004745,"INCLINATION":0.0232,"RA_OF_ASC_NODE":90.2183,"ARG_OF_PERICENTER":282.6689,"MEAN_ANOMALY":20.0402,"EPHEMERIS_TYPE":0,"CLASSIFICATION_TYPE":"U","NORAD_CAT_ID":33056,"ELEMENT_SET_NO":999,"REV_AT_EPOCH":5132,"BSTAR":0,"MEAN_MOTION_DOT":1.42e-6,"MEAN_MOTION_DDOT":0}]
