WGS F1 (USA 195)        
1 32258U 07046A   26065.85844213 -.00000270  00000+0  00000+0 0  9999
2 32258   0.0792  87.2869 0000292 335.5143   8.2822  1.00272461 51301
SKYNET 5B               
1 32294U 07056B   26066.01309852  .00000138  00000+0  00000+0 0  9996
2 32294   4.9918  74.7206 0004004 271.7490 208.0209  1.00272164 67172
ASTRA 4A                
1 32299U 07057A   26066.07336435  .00000030  00000+0  00000+0 0  9996
2 32299   0.0479 297.4907 0002424  53.2433 205.2579  1.00271294 50626
HORIZONS-2              
1 32388U 07063B   26066.11294596 -.00000255  00000+0  00000+0 0  9998
2 32388   2.3387  81.9182 0002766 263.4343 146.3283  1.00271076 66793
THURAYA-3               
1 32404U 08001A   26065.95947566 -.00000303  00000+0  00000+0 0  9997
2 32404   5.8165  35.6064 0002434 315.4250 257.5229  1.00269972 66467
EXPRESS-AM33            
1 32478U 08003A   26066.16028237  .00000148  00000+0  00000+0 0  9995
2 32478   4.5401  76.5800 0014064 179.8433   7.4304  1.00173008 52719
THOR 5                  
1 32487U 08006A   26065.95461376 -.00000012  00000+0  00000+0 0  9990
2 32487   0.0452 253.4982 0002688 105.8212 148.2392  1.00271641 66297
KIZUNA (WINDS)          
1 32500U 08007A   26065.79476338 -.00000037  00000+0  00000+0 0  9990
2 32500   8.2841  63.3078 0001161 204.7434 178.7489  1.00284860 65874
DIRECTV 11              
1 32729U 08013A   26065.56197567 -.00000130  00000+0  00000+0 0  9993
2 32729   0.0177 334.4791 0000280   9.1117 283.8006  1.00272331 44565
ICO G1                  
1 32763U 08016A   26065.99102161 -.00000173  00000+0  00000+0 0  9994
2 32763   5.5116  36.3693 0002654 293.0133  99.2319  1.00272649 65521
VINASAT-1               
1 32767U 08018A   26065.97683830 -.00000331  00000+0  00000+0 0  9991
2 32767   0.0469 287.3600 0002348  99.3230 261.5991  1.00272657 65560
STAR ONE C2             
1 32768U 08018B   26065.49741642 -.00000281  00000+0  00000+0 0  9999
2 32768   0.9780  83.4315 0002813 265.6045 289.2387  1.00274104 65625
AMOS-3                  
1 32794U 08022A   26065.98377960 -.00000038  00000+0  00000+0 0  9995
2 32794   0.1914  88.8494 0001588 188.5100 237.3919  1.00273553 81311
GALAXY 18 (G-18)        
1 32951U 08024A   26066.14072602  .00000000  00000+0  00000+0 0  9994
2 32951   0.0226 151.2991 0003277 223.0665  78.1667  1.00272041 44823
ZHONGXING-9             
1 33051U 08028A   26066.09909544 -.00000251  00000+0  00000+0 0  9997
2 33051   0.5079  87.0072 0008798 242.1074 323.7513  1.00271944 65015
SKYNET 5C               
1 33055U 08030A   26065.93586213 -.00000142  00000+0  00000+0 0  9999
2 33055   3.5272  78.2595 0005008 283.0739 122.4009  1.00272909 64938
TURKSAT 3A              
1 33056U 08030B   26065.51856319  .00000142  00000+0  00000+0 0  9990
2 33056   0.0232  90.2183 0004745 282.6689  20.0402  1.00275896 51327
